TDRS 3                  
1 19548U 88091B   23129.08415801 -.00000297  00000+0  00000+0 0  9994
2 19548  13.4751 348.8377 0036566 340.8955 237.9827  1.00263102114009
HST                     
1 20580U 90037B   23128.83762876  .00005125  00000+0  27269-3 0  9998
2 20580  28.4679 169.7723 0002180 315.2814 210.8776 15.12975706615492
TDRS 5                  
1 21639U 91054B   23129.22370453  .00000086  00000+0  00000+0 0  9995
2 21639  14.2107   2.1352 0028135 359.5257 138.1616  1.00265274116333
TDRS 6                  
1 22314U 93003B   23129.17519466 -.00000293  00000+0  00000+0 0  9996
2 22314  14.1497   5.4107 0010782 124.8515 113.6505  1.00269211111029
TDRS 7                  
1 23613U 95035B   23128.79828782 -.00000197  00000+0  00000+0 0  9990
2 23613  13.8507 356.1390 0029292  58.9069 183.4197  1.00268590101869
ISS (ZARYA)             
1 25544U 98067A   23129.52382288  .00015688  00000+0  28157-3 0  9998
2 25544  51.6404 160.1596 0006193 328.0352 127.9636 15.50062205395795
LANDSAT 7               
1 25682U 99020A   23129.54448052  .00000580  00000+0  12987-3 0  9994
2 25682  97.9336 169.5335 0001576  96.1884 263.9504 14.60074906280140
TERRA                   
1 25994U 99068A   23129.53058840  .00000773  00000+0  17356-3 0  9992
2 25994  98.0960 198.8683 0002020 147.5915 324.9117 14.59207300244022
TDRS 8                  
1 26388U 00034A   23128.73868682 -.00000228  00000+0  00000+0 0  9999
2 26388  10.8845  40.2784 0023480 344.2096 196.9977  1.00268639 83795
TIMED                   
1 26998U 01055B   23129.09519567  .00001683  00000+0  17987-3 0  9996
2 26998  74.0724 350.5251 0001362 188.4134 171.7025 14.89647198161471
TDRS 9                  
1 27389U 02011A   23128.68243701 -.00000260  00000+0  00000+0 0  9997
2 27389   9.7284  57.5054 0005034  42.3091 146.6129  0.98983420 79040
AQUA                    
1 27424U 02022A   23129.57261403  .00001413  00000+0  31744-3 0  9990
2 27424  98.2850  74.1282 0000921  58.3558 355.9846 14.58021177117693
TDRS 10                 
1 27566U 02055A   23129.60121615  .00000091  00000+0  00000+0 0  9995
2 27566   8.8056  48.0596 0009111 340.2586 244.1586  1.00267489 74858
SORCE                   
1 27651U 03004A   23129.28714833  .00003501  00000+0  35346-3 0  9993
2 27651  39.9930 196.2563 0021448 247.5305 112.3213 14.91777523101701
AURA                    
1 28376U 04026A   23129.53024802  .00001372  00000+0  31244-3 0  9998
2 28376  98.2081  73.7314 0001064  81.2306 278.9013 14.57432354   718
SWIFT                   
1 28485U 04047A   23129.48365984  .00008828  00000+0  49318-3 0  9999
2 28485  20.5549 176.4461 0010085 122.8059 237.3348 15.10411329 12756
THEMIS A                
1 30580U 07004A   23126.95249115 -.00000295  00000+0 -72511-1 0  9991
2 30580  11.5030 307.4985 8336408 236.5214  34.1145  0.87833687 55973
THEMIS D                
1 30797U 07004D   23126.95153233 -.00000309  00000+0  00000+0 0  9993
2 30797   7.7883 294.8604 8289906 252.4800  22.9082  0.87773063 55494
THEMIS E                
1 30798U 07004E   23128.01098661 -.00000356  00000+0  00000+0 0  9998
2 30798   8.9528 313.2328 8291680 235.9672  14.1662  0.87831882 55927
AIM                     
1 31304U 07015A   23129.38813368  .00024394  00000+0  88288-3 0  9999
2 31304  97.8700  67.9102 0002543   4.6309 355.4953 15.28408604880755
FGRST (GLAST)           
1 33053U 08029A   23129.21575952  .00003377  00000+0  16517-3 0  9998
2 33053  25.5818 103.6540 0011506   1.0160 359.0398 15.13870792823301
WISE                    
1 36119U 09071A   23129.57844943  .00018958  00000+0  46255-3 0  9993
2 36119  97.1987 163.0033 0002272 152.4732 207.6636 15.40910456745579
TDRS 11                 
1 39070U 13004A   23129.59829715  .00000084  00000+0  00000+0 0  9990
2 39070   2.7243 356.7433 0006574  57.2803 214.3531  1.00279287 35314
TDRS 12                 
1 39504U 14004A   23129.21785492 -.00000265  00000+0  00000+0 0  9997
2 39504   3.6393 353.8279 0004605 124.1895 146.3255  1.00271782 32895
GPM-CORE                
1 39574U 14009C   23129.59781678  .00017960  00000+0  25744-3 0  9997
2 39574  64.9926 157.9307 0013474 269.1622  90.7981 15.56171151522359
MMS 1                   
1 40482U 15011A   23123.62500000 -.00000031  00000+0  00000+0 0  9993
2 40482  28.9741  70.6656 9078992  89.7089 173.8774  0.28569305 14208
MMS 2                   
1 40483U 15011B   23123.62500000 -.00000031  00000+0  00000+0 0  9994
2 40483  28.9648  70.6502 9079169  89.7148 173.8817  0.28567413 14181
MMS 3                   
1 40484U 15011C   23123.62500000 -.00000031  00000+0  00000+0 0  9995
2 40484  28.9697  70.6686 9079511  89.7014 173.8925  0.28569293 14180
MMS 4                   
1 40485U 15011D   23123.62500000 -.00000031  00000+0  00000+0 0  9996
2 40485  28.9645  70.6577 9079729  89.7155 173.8656  0.28567428 14189
TDRS 13                 
1 42915U 17047A   23128.83660425 -.00000094  00000+0  00000+0 0  9992
2 42915   4.0512 337.3334 0018707 109.9039  68.9033  1.00272325 20963
JPSS-1                  
1 43013U 17073A   23129.56743154  .00000151  00000+0  92622-4 0  9992
2 43013  98.7508  68.5545 0000936 108.0513 252.0765 14.19546935283499
